[
    {
        "Altitude(m)": 611965.1708783678,
        "Argument of Periapsis(deg)": 0.0,
        "Eccentricity": 0.0,
        "Inclination(deg)": 60.0,
        "Latitude(deg)": 59.14011767898674,
        "Longitude(deg)": -56.03027739509155,
        "Mean Anomaly(deg)": -278.1818,
        "RAAN(deg)": 330.0,
        "Satellite Name": "Test1 1457",
        "Satellite Number": 1457,
        "Semi-Major Axis(m)": 6980739.136638005,
        "Time(s)": 0
    },
    {
        "Altitude(m)": 611995.7967969473,
        "Argument of Periapsis(deg)": 0.00010418945913296404,
        "Eccentricity": 0.0,
        "Inclination(deg)": 60.0,
        "Latitude(deg)": 59.28321880435182,
        "Longitude(deg)": -54.89691719642843,
        "Mean Anomaly(deg)": -277.5616938545382,
        "RAAN(deg)": 329.9995799508602,
        "Satellite Name": "Test1 1457",
        "Satellite Number": 1457,
        "Semi-Major Axis(m)": 6980739.136638005,
        "Time(s)": 10
    }
]